IRIDIUM 63              
1 25286U 98021B   25154.52700463  .00000601  00000+0  19802-3 0  9996
2 25286  86.3972  87.8626 0002193  81.3910 278.7535 14.36537640421883
IRIDIUM 69              
1 25319U 98026A   25154.58152524  .00000826  00000+0  25125-3 0  9997
2 25319  86.3962 101.1722 0004641  77.2253 282.9465 14.40957140421100
IRIDIUM 71              
1 25320U 98026B   25154.59014902  .00000629  00000+0  18920-3 0  9993
2 25320  86.3962  95.8609 0004103 107.5951 252.5697 14.41149376421633
IRIDIUM 73              
1 25344U 98032C   25154.62079807  .00000843  00000+0  20510-3 0  9991
2 25344  86.4423  52.5787 0002804  75.4209 284.7307 14.51703801428591
IRIDIUM 82              
1 25467U 98051A   25154.37634278  .00042769  00000+0  12413-2 0  9994
2 25467  86.3659 116.5264 0085088 351.6025   8.3793 15.31716889421847
